[{"OBJECT_NAME":"NETSAT-1","OBJECT_ID":"2020-068W","EPOCH":"2026-03-09T22:42:38.711232","MEAN_MOTION":15.32042482,"ECCENTRICITY":0.00057337,"INCLINATION":97.8751,"RA_OF_ASC_NODE":63.2583,"ARG_OF_PERICENTER":18.5877,"MEAN_ANOMALY":341.5572,"EPHEMERIS_TYPE":0,"CLASSIFICATION_TYPE":"U","NORAD_CAT_ID":46506,"ELEMENT_SET_NO":999,"REV_AT_EPOCH":30009,"BSTAR":0.00059222329,"MEAN_MOTION_DOT":0.00018269,"MEAN_MOTION_DDOT":0},{"OBJECT_NAME":"STARLINK-35304","OBJECT_ID":"2025-245R","EPOCH":"2026-03-09T20:29:56.392224","MEAN_MOTION":15.30223002,"ECCENTRICITY":0.0002231,"INCLINATION":53.1587,"RA_OF_ASC_NODE":282.9916,"ARG_OF_PERICENTER":154.6324,"MEAN_ANOMALY":205.4787,"EPHEMERIS_TYPE":0,"CLASSIFICATION_TYPE":"U","NORAD_CAT_ID":66249,"ELEMENT_SET_NO":999,"REV_AT_EPOCH":2106,"BSTAR":0.0014180647,"MEAN_MOTION_DOT":0.00041908,"MEAN_MOTION_DDOT":0}]
